CCSDS_OMM_VERS = 2.0
CREATION_DATE  = 
ORIGINATOR     = 

OBJECT_NAME    = YOTSUBA-KULOVER
OBJECT_ID      = 1998-067XN
CENTER_NAME    = EARTH
REF_FRAME      = TEME
TIME_SYSTEM    = UTC
MEAN_ELEMENT_THEORY = SGP/SGP4

EPOCH          = 2026-02-26T04:19:19.282656
MEAN_MOTION    = 15.75841718
ECCENTRICITY   = .00060087
INCLINATION    = 51.6225
RA_OF_ASC_NODE = 116.7728
ARG_OF_PERICENTER = 4.4210
MEAN_ANOMALY   = 355.6841

EPHEMERIS_TYPE = 0
CLASSIFICATION_TYPE = U
NORAD_CAT_ID   = 65941
ELEMENT_SET_NO = 999
REV_AT_EPOCH   = 2168
BSTAR          = .89226417E-3
MEAN_MOTION_DOT = .142535E-2
MEAN_MOTION_DDOT = 0

CCSDS_OMM_VERS = 2.0
CREATION_DATE  = 
ORIGINATOR     = 

OBJECT_NAME    = BOTAN
OBJECT_ID      = 1998-067XP
CENTER_NAME    = EARTH
REF_FRAME      = TEME
TIME_SYSTEM    = UTC
MEAN_ELEMENT_THEORY = SGP/SGP4

EPOCH          = 2026-02-26T03:50:10.633920
MEAN_MOTION    = 16.03861975
ECCENTRICITY   = .00092206
INCLINATION    = 51.6123
RA_OF_ASC_NODE = 110.5193
ARG_OF_PERICENTER = 21.5497
MEAN_ANOMALY   = 338.5900

EPHEMERIS_TYPE = 0
CLASSIFICATION_TYPE = U
NORAD_CAT_ID   = 65942
ELEMENT_SET_NO = 999
REV_AT_EPOCH   = 2176
BSTAR          = .16143572E-2
MEAN_MOTION_DOT = .106086E-1
MEAN_MOTION_DDOT = .60715696E-3

CCSDS_OMM_VERS = 2.0
CREATION_DATE  = 
ORIGINATOR     = 

OBJECT_NAME    = E-KAGAKU-1
OBJECT_ID      = 1998-067XQ
CENTER_NAME    = EARTH
REF_FRAME      = TEME
TIME_SYSTEM    = UTC
MEAN_ELEMENT_THEORY = SGP/SGP4

EPOCH          = 2026-02-26T04:22:53.916672
MEAN_MOTION    = 15.75638896
ECCENTRICITY   = .00062211
INCLINATION    = 51.6246
RA_OF_ASC_NODE = 116.8039
ARG_OF_PERICENTER = 13.1985
MEAN_ANOMALY   = 346.9177

EPHEMERIS_TYPE = 0
CLASSIFICATION_TYPE = U
NORAD_CAT_ID   = 65943
ELEMENT_SET_NO = 999
REV_AT_EPOCH   = 2168
BSTAR          = .87781659E-3
MEAN_MOTION_DOT = .138922E-2
MEAN_MOTION_DDOT = 0

CCSDS_OMM_VERS = 2.0
CREATION_DATE  = 
ORIGINATOR     = 

OBJECT_NAME    = HRC MONOBLOCK CAMERA
OBJECT_ID      = 1998-067XR
CENTER_NAME    = EARTH
REF_FRAME      = TEME
TIME_SYSTEM    = UTC
MEAN_ELEMENT_THEORY = SGP/SGP4

EPOCH          = 2026-02-26T04:20:12.368544
MEAN_MOTION    = 15.60861243
ECCENTRICITY   = .00030337
INCLINATION    = 51.6279
RA_OF_ASC_NODE = 123.5582
ARG_OF_PERICENTER = 45.2389
MEAN_ANOMALY   = 314.8850

EPHEMERIS_TYPE = 0
CLASSIFICATION_TYPE = U
NORAD_CAT_ID   = 66052
ELEMENT_SET_NO = 999
REV_AT_EPOCH   = 2059
BSTAR          = .50609272E-3
MEAN_MOTION_DOT = .42829E-3
MEAN_MOTION_DDOT = 0

CCSDS_OMM_VERS = 2.0
CREATION_DATE  = 
ORIGINATOR     = 

OBJECT_NAME    = HTV-X1
OBJECT_ID      = 2025-241A
CENTER_NAME    = EARTH
REF_FRAME      = TEME
TIME_SYSTEM    = UTC
MEAN_ELEMENT_THEORY = SGP/SGP4

EPOCH          = 2026-02-26T05:15:21.669984
MEAN_MOTION    = 15.48304484
ECCENTRICITY   = .00083492
INCLINATION    = 51.6320
RA_OF_ASC_NODE = 129.0607
ARG_OF_PERICENTER = 134.6702
MEAN_ANOMALY   = 225.4968

EPHEMERIS_TYPE = 0
CLASSIFICATION_TYPE = U
NORAD_CAT_ID   = 66174
ELEMENT_SET_NO = 999
REV_AT_EPOCH   = 51
BSTAR          = .2317509E-3
MEAN_MOTION_DOT = .12044E-3
MEAN_MOTION_DDOT = 0

CCSDS_OMM_VERS = 2.0
CREATION_DATE  = 
ORIGINATOR     = 

OBJECT_NAME    = SZ-21 MODULE
OBJECT_ID      = 2025-246C
CENTER_NAME    = EARTH
REF_FRAME      = TEME
TIME_SYSTEM    = UTC
MEAN_ELEMENT_THEORY = SGP/SGP4

EPOCH          = 2026-02-26T06:58:55.713504
MEAN_MOTION    = 15.67575585
ECCENTRICITY   = .00014376
INCLINATION    = 41.4745
RA_OF_ASC_NODE = 273.4799
ARG_OF_PERICENTER = 288.9252
MEAN_ANOMALY   = 71.1434

EPHEMERIS_TYPE = 0
CLASSIFICATION_TYPE = U
NORAD_CAT_ID   = 66515
ELEMENT_SET_NO = 999
REV_AT_EPOCH   = 1628
BSTAR          = .31874623E-3
MEAN_MOTION_DOT = .35556E-3
MEAN_MOTION_DDOT = 0

CCSDS_OMM_VERS = 2.0
CREATION_DATE  = 
ORIGINATOR     = 

OBJECT_NAME    = SHENZHOU-22
OBJECT_ID      = 2025-272A
CENTER_NAME    = EARTH
REF_FRAME      = TEME
TIME_SYSTEM    = UTC
MEAN_ELEMENT_THEORY = SGP/SGP4

EPOCH          = 2026-02-26T01:36:20.998944
MEAN_MOTION    = 15.60105415
ECCENTRICITY   = .00058847
INCLINATION    = 41.4663
RA_OF_ASC_NODE = 278.8535
ARG_OF_PERICENTER = 197.5112
MEAN_ANOMALY   = 162.5524

EPHEMERIS_TYPE = 0
CLASSIFICATION_TYPE = U
NORAD_CAT_ID   = 66645
ELEMENT_SET_NO = 999
REV_AT_EPOCH   = 26764
BSTAR          = .12875241E-3
MEAN_MOTION_DOT = .10434E-3
MEAN_MOTION_DDOT = 0

CCSDS_OMM_VERS = 2.0
CREATION_DATE  = 
ORIGINATOR     = 

OBJECT_NAME    = SOYUZ-MS 28
OBJECT_ID      = 2025-275A
CENTER_NAME    = EARTH
REF_FRAME      = TEME
TIME_SYSTEM    = UTC
MEAN_ELEMENT_THEORY = SGP/SGP4

EPOCH          = 2026-02-26T05:15:21.669984
MEAN_MOTION    = 15.48304484
ECCENTRICITY   = .00083492
INCLINATION    = 51.6320
RA_OF_ASC_NODE = 129.0607
ARG_OF_PERICENTER = 134.6702
MEAN_ANOMALY   = 225.4968

EPHEMERIS_TYPE = 0
CLASSIFICATION_TYPE = U
NORAD_CAT_ID   = 66664
ELEMENT_SET_NO = 999
REV_AT_EPOCH   = 128
BSTAR          = .2317509E-3
MEAN_MOTION_DOT = .12044E-3
MEAN_MOTION_DDOT = 0

CCSDS_OMM_VERS = 2.0
CREATION_DATE  = 
ORIGINATOR     = 

OBJECT_NAME    = DUPLEX
OBJECT_ID      = 1998-067XS
CENTER_NAME    = EARTH
REF_FRAME      = TEME
TIME_SYSTEM    = UTC
MEAN_ELEMENT_THEORY = SGP/SGP4

EPOCH          = 2026-02-26T05:12:16.094880
MEAN_MOTION    = 15.55393894
ECCENTRICITY   = .00018536
INCLINATION    = 51.6287
RA_OF_ASC_NODE = 126.8003
ARG_OF_PERICENTER = 78.2158
MEAN_ANOMALY   = 281.9041

EPHEMERIS_TYPE = 0
CLASSIFICATION_TYPE = U
NORAD_CAT_ID   = 66906
ELEMENT_SET_NO = 999
REV_AT_EPOCH   = 1334
BSTAR          = .50050527E-3
MEAN_MOTION_DOT = .34369E-3
MEAN_MOTION_DDOT = 0

CCSDS_OMM_VERS = 2.0
CREATION_DATE  = 
ORIGINATOR     = 

OBJECT_NAME    = ISS OBJECT XT
OBJECT_ID      = 1998-067XT
CENTER_NAME    = EARTH
REF_FRAME      = TEME
TIME_SYSTEM    = UTC
MEAN_ELEMENT_THEORY = SGP/SGP4

EPOCH          = 2026-02-26T04:04:31.145952
MEAN_MOTION    = 15.65665738
ECCENTRICITY   = .00041137
INCLINATION    = 51.6260
RA_OF_ASC_NODE = 124.2292
ARG_OF_PERICENTER = 14.0579
MEAN_ANOMALY   = 346.0530

EPHEMERIS_TYPE = 0
CLASSIFICATION_TYPE = U
NORAD_CAT_ID   = 66907
ELEMENT_SET_NO = 999
REV_AT_EPOCH   = 1337
BSTAR          = .10535932E-2
MEAN_MOTION_DOT = .109337E-2
MEAN_MOTION_DDOT = 0

CCSDS_OMM_VERS = 2.0
CREATION_DATE  = 
ORIGINATOR     = 

OBJECT_NAME    = ISS OBJECT XU
OBJECT_ID      = 1998-067XU
CENTER_NAME    = EARTH
REF_FRAME      = TEME
TIME_SYSTEM    = UTC
MEAN_ELEMENT_THEORY = SGP/SGP4

EPOCH          = 2026-02-26T05:34:49.050624
MEAN_MOTION    = 15.65764528
ECCENTRICITY   = .00041736
INCLINATION    = 51.6254
RA_OF_ASC_NODE = 123.8945
ARG_OF_PERICENTER = 16.4246
MEAN_ANOMALY   = 343.6884

EPHEMERIS_TYPE = 0
CLASSIFICATION_TYPE = U
NORAD_CAT_ID   = 66908
ELEMENT_SET_NO = 999
REV_AT_EPOCH   = 1338
BSTAR          = .12060329E-2
MEAN_MOTION_DOT = .125993E-2
MEAN_MOTION_DDOT = 0

CCSDS_OMM_VERS = 2.0
CREATION_DATE  = 
ORIGINATOR     = 

OBJECT_NAME    = SILVERSAT
OBJECT_ID      = 1998-067XV
CENTER_NAME    = EARTH
REF_FRAME      = TEME
TIME_SYSTEM    = UTC
MEAN_ELEMENT_THEORY = SGP/SGP4

EPOCH          = 2026-02-25T11:40:55.603488
MEAN_MOTION    = 15.67641974
ECCENTRICITY   = .0004851
INCLINATION    = 51.6250
RA_OF_ASC_NODE = 127.1648
ARG_OF_PERICENTER = 9.1983
MEAN_ANOMALY   = 350.9101

EPHEMERIS_TYPE = 0
CLASSIFICATION_TYPE = U
NORAD_CAT_ID   = 66909
ELEMENT_SET_NO = 999
REV_AT_EPOCH   = 1327
BSTAR          = .12222508E-2
MEAN_MOTION_DOT = .138005E-2
MEAN_MOTION_DDOT = 0

