YOTSUBA-KULOVER         
1 65941U 98067XN  26057.18008429  .00142535  00000+0  89226-3 0  9996
2 65941  51.6225 116.7728 0006008   4.4210 355.6841 15.75841718 21681
BOTAN                   
1 65942U 98067XP  26057.15984530  .01060860  60716-3  16144-2 0  9993
2 65942  51.6123 110.5193 0009220  21.5497 338.5900 16.03861975 21767
E-KAGAKU-1              
1 65943U 98067XQ  26057.18256848  .00138922  00000+0  87782-3 0  9998
2 65943  51.6246 116.8039 0006221  13.1985 346.9177 15.75638896 21681
HRC MONOBLOCK CAMERA    
1 66052U 98067XR  26057.18069871  .00042829  00000+0  50609-3 0  9996
2 66052  51.6279 123.5582 0003033  45.2389 314.8850 15.60861243 20598
HTV-X1                  
1 66174U 25241A   26057.21900081  .00012044  00000+0  23175-3 0  9990
2 66174  51.6320 129.0607 0008349 134.6702 225.4968 15.48304484   518
SZ-21 MODULE            
1 66515U 25246C   26057.29092261  .00035556  00000+0  31875-3 0  9993
2 66515  41.4745 273.4799 0001437 288.9252  71.1434 15.67575585 16283
SHENZHOU-22             
1 66645U 25272A   26057.06690971  .00010434  00000+0  12875-3 0  9990
2 66645  41.4663 278.8535 0005884 197.5112 162.5524 15.60105415267640
SOYUZ-MS 28             
1 66664U 25275A   26057.21900081  .00012044  00000+0  23175-3 0  9991
2 66664  51.6320 129.0607 0008349 134.6702 225.4968 15.48304484  1287
DUPLEX                  
1 66906U 98067XS  26057.21685295  .00034369  00000+0  50051-3 0  9993
2 66906  51.6287 126.8003 0001853  78.2158 281.9041 15.55393894 13344
ISS OBJECT XT           
1 66907U 98067XT  26057.16980493  .00109337  00000+0  10536-2 0  9997
2 66907  51.6260 124.2292 0004113  14.0579 346.0530 15.65665738 13374
ISS OBJECT XU           
1 66908U 98067XU  26057.23251216  .00125993  00000+0  12060-2 0  9990
2 66908  51.6254 123.8945 0004173  16.4246 343.6884 15.65764528 13384
SILVERSAT               
1 66909U 98067XV  26056.48675467  .00138005  00000+0  12223-2 0  9994
2 66909  51.6250 127.1648 0004851   9.1983 350.9101 15.67641974 13270
